#aV2015  9 18  0  0  0.00000000     288 DD+AD WGS84 FIT  NGA
## 1862 432000.00000000   300.00000000 57283 0.0000000000000
+   31     1  2  3  4  5  6  7  8  9 11 12 13 14 15 16 17 18
+         19 20 21 22 23 24 25 26 27 28 29 30 31 32  0  0  0
+          0  0  0  0  0  0  0  0  0  0  0  0  0  0  0  0  0
+          0  0  0  0  0  0  0  0  0  0  0  0  0  0  0  0  0
+          0  0  0  0  0  0  0  0  0  0  0  0  0  0  0  0  0
++         2  2  2  2  2  2  2  2  2  2  2  2  2  2  2  2  2
++         2  2  2  2  2  2  2  2  2  2  2  2  2  2  0  0  0
++         0  0  0  0  0  0  0  0  0  0  0  0  0  0  0  0  0
++         0  0  0  0  0  0  0  0  0  0  0  0  0  0  0  0  0
++         0  0  0  0  0  0  0  0  0  0  0  0  0  0  0  0  0
%c cc cc ccc ccc cccc cccc cccc cccc ccccc ccccc ccccc ccccc
%c cc cc ccc ccc cccc cccc cccc cccc ccccc ccccc ccccc ccccc
%f  0.0000000  0.000000000  0.00000000000  0.000000000000000
%f  0.0000000  0.000000000  0.00000000000  0.000000000000000
%i    0    0    0    0      0      0      0      0         0
%i    0    0    0    0      0      0      0      0         0
/*      NGA, ST. LOUIS,MO.                                  
/*   EPHEMERIS COMPUTED FROM  1 DAYS OF DATA                
/*   EPOCHA SMOOTHER                                       
/* CCCCCCCCCCCCCCCCCCCCCCCCCCCCCCCCCCCCCCCCCCCCCCCCCCCCCCCCC
*  2015  9 18 23 30  0.00000000
P  1 -11063.401191  21339.430721 -11142.431620      0.742215                    
V  1 -11922.622314   7955.867985  27439.864142      0.007058                    
P  2  21220.339099 -12182.001195  -9381.737939    589.464846                    
V  2  -6227.208515  11537.783686 -28367.873511      0.016036                    
P  3  -3416.711018  14860.186446 -21736.718043     21.133794                    
V  3 -26604.733546  -7452.799485   -936.277939      0.004233                    
P  4 -17071.110912  20019.697698  -2730.668170    -22.159535                    
V  4  -4756.692076   -371.329769  31212.587365     -0.042560                    
P  5  22451.718825  -4060.857895  13698.170868   -194.040552                    
V  5  16189.580208   6937.903211 -24182.332025      0.040425                    
P  6  19287.067247  -1079.606133 -18225.596090     60.679975                    
V  6 -15510.904432  17237.807022 -17443.485097      0.073230                    
P  7   2962.610909  16527.572779  20604.713692    484.555199                    
V  7 -19782.491060  16851.018939 -11117.120540     -0.006522                    
P  8  -7045.307437  19472.565585  16682.487893     -5.737856                    
V  8  -7002.569902 -19984.430183  20407.490758     -0.013976                    
P  9   7983.849242  25242.668924   2022.949719     -8.735002                    
V  9  -2223.477249   3235.387463 -31529.571408      0.019214                    
P 11  -9082.559932  24768.718301  -3155.088622   -605.033220                    
V 11  -5883.259901    977.389212  29908.871753     -0.023304                    
P 12   6494.767066 -13186.527542 -22215.882598    329.339281                    
V 12  26352.434100   9111.842942   2509.754032      0.034423                    
P 13  12995.774525  -9836.458795  20862.360978   -150.193468                    
V 13   4307.734109  26392.573254   9592.330931     -0.029461                    
P 14 -13899.035912 -15980.986779 -15867.640856     33.800414                    
V 14  -1712.330594 -20553.487599  21702.322545     -0.026041                    
P 15   6221.248140 -20059.253010  15967.624330   -272.315248                    
V 15   8653.333489  18963.082777  20657.623383     -0.020304                    
P 16 -22723.262178   1534.949373  13888.852383    -85.163726                    
V 16 -16138.602731  -7074.371798 -25116.119470      0.039509                    
P 17  14403.824839  15060.616859 -16286.391093   -188.153328                    
V 17   2710.042506  21023.535911  21235.274401     -0.012098                    
P 18 -15738.318109 -15816.225062  15122.187899    435.225302                    
V 18  18349.555140   2190.826111  21855.236103      0.032801                    
P 19  -3250.953024  24058.699031  10057.260398   -520.295274                    
V 19  -4590.136999 -12657.595029  28602.778624     -0.005557                    
P 20   7233.302403 -14531.382638  20878.612238    356.380008                    
V 20  26335.255162   5948.803452  -4866.160590      0.030667                    
P 21  -7329.406302 -14990.112220  21328.773147   -480.707829                    
V 21  18610.662057 -17626.228214  -6535.454601     -0.027621                    
P 22 -24607.887322  -9517.238054   4027.616255    392.614128                    
V 22   5617.896568  -2419.614311  30230.466152      0.037819                    
P 23  -1734.158741  24056.506794 -10451.058546   -133.996417                    
V 23  -6431.876116 -12503.240662 -27710.779285     -0.021845                    
P 24  12936.680003 -21527.805629  -8424.552635     -4.899442                    
V 24   9657.485617  -5502.504358  29159.362734     -0.005723                    
P 25  -8021.648668 -16068.810804 -19723.444009    -40.609262                    
V 25  24031.026841   5883.694722 -14482.968177     -0.051597                    
P 26 -25887.232033  -4087.782348   4328.649420    -56.926942                    
V 26  -4554.781707  -4138.641380 -31117.223889     -0.112330                    
P 27 -13503.860249   7271.964410  21646.194347     20.771218                    
V 27  -7244.005885 -26571.692247   4519.793408      0.029826                    
P 28  21932.624772  13317.264708   7642.685957    468.513132                    
V 28  -8833.325572  -1499.274274  30380.709240      0.026920                    
P 29  -4967.662163 -26112.531612   -198.583474    634.980702                    
V 29   2367.635645   -190.892468 -32024.194264      0.022076                    
P 30  12954.420772   8916.924176  21411.263045     26.850647                    
V 30 -20559.079837  17816.787598   4937.198707      0.065776                    
P 31 -19735.768898   1648.769729 -17730.435731    302.363814                    
V 31  15890.438223 -16138.968048 -18718.653677     -0.013094                    
P 32 -15957.119646   8779.565756 -19189.198514    -39.410288                    
V 32 -22339.970296 -10196.269277  14481.988356      0.111610                    
EOF
